*******************************************************************************
JPL/HORIZONS               3753 Cruithne (1986 TO)         2019-Mar-07 16:52:31
Rec #:    3753 (+COV) Soln.date: 2018-Sep-27_06:26:23    # obs: 677 (1973-2018)
 
IAU76/J2000 helio. ecliptic osc. elements (au, days, deg., period=Julian yrs):
 
  EPOCH=  2453905.5 ! 2006-Jun-19.00 (TDB)         Residual RMS= .45365
   EC= .5148046512803501   QR= .4840942114797048   TP= 2453736.2389323311
   OM= 126.2984750532049   W=  43.7425175326044    IN= 19.8096238138409
   A= .997730528038138     MA= 167.3945286394614   ADIST= 1.511366844596571
   PER= .99662             N= .988972398           ANGMOM= .014730745
   DAN= .53451             DDN= 1.16754            L= 168.2985837
   B= 13.5514841           MOID= .0715464          TP= 2005-Dec-31.7389323311
 
Asteroid physical parameters (km, seconds, rotational period in hours):
   GM= n.a.                RAD= 1.0355             ROTPER= 27.3099
   H= 15.6                 G= .150                 B-V= n.a.
                           ALBEDO= .365            STYP= Q
 
ASTEROID comments: 
1: soln ref.= JPL#144, OCC=0
2: source=ORB
*******************************************************************************
 
  
*******************************************************************************
Ephemeris / WWW_USER Thu Mar  7 16:52:31 2019 Pasadena, USA      / Horizons    
*******************************************************************************
Target body name: 3753 Cruithne (1986 TO)         {source: JPL#144}
Center body name: Earth-Moon Barycenter (3)       {source: DE431}
Center-site name: BODY CENTER
*******************************************************************************
Start time      : A.D. 2019-Feb-28 00:00:00.0000 TDB
Stop  time      : A.D. 2021-Feb-28 00:00:00.0000 TDB
Step-size       : 1440 minutes
*******************************************************************************
Center geodetic : 0.00000000,0.00000000,0.0000000 {E-lon(deg),Lat(deg),Alt(km)}
Center cylindric: 0.00000000,0.00000000,0.0000000 {E-lon(deg),Dxy(km),Dz(km)}
Center radii    : (undefined)                                                  
Small perturbers: Yes                             {source: SB431-N16}
Output units    : AU-D                                                         
Output type     : GEOMETRIC cartesian states
Output format   : 3 (position, velocity, LT, range, range-rate)
Reference frame : ICRF/J2000.0                                                 
Coordinate systm: Ecliptic and Mean Equinox of Reference Epoch                 
*******************************************************************************
Initial IAU76/J2000 heliocentric ecliptic osculating elements (au, days, deg.):
  EPOCH=  2453905.5 ! 2006-Jun-19.00 (TDB)         Residual RMS= .45365        
   EC= .5148046512803501   QR= .4840942114797048   TP= 2453736.2389323311      
   OM= 126.2984750532049   W=  43.7425175326044    IN= 19.8096238138409        
  Equivalent ICRF heliocentric equatorial cartesian coordinates (au, au/d):
   X= 1.411566672652874E+00  Y=-2.528002974852009E-01  Z=-4.598316673859464E-01
  VX= 2.914203775890965E-03 VY= 9.318915208005769E-03 VZ= 1.035231207835076E-03
Asteroid physical parameters (km, seconds, rotational period in hours):        
   GM= n.a.                RAD= 1.0355             ROTPER= 27.3099             
   H= 15.6                 G= .150                 B-V= n.a.                   
                           ALBEDO= .365            STYP= Q                     
*******************************************************************************
JDTDB
   X     Y     Z
   VX    VY    VZ
   LT    RG    RR
*******************************************************************************
$$SOE
2458542.500000000 = A.D. 2019-Feb-28 00:00:00.0000 TDB 
 X = 1.499766768646759E+00 Y =-1.302436403088749E+00 Z = 3.375970964484656E-02
 VX= 2.131522545293437E-02 VY= 1.585018337807579E-02 VZ=-4.252353662820401E-03
 LT= 1.147393703977780E-02 RG= 1.986650614079688E+00 RR= 5.627790145426121E-03
2458543.500000000 = A.D. 2019-Mar-01 00:00:00.0000 TDB 
 X = 1.520878146875081E+00 Y =-1.286430323520982E+00 Z = 2.950385425388606E-02
 VX= 2.090715196011272E-02 VY= 1.616043604884783E-02 VZ=-4.259180255259371E-03
 LT= 1.150596290870944E-02 RG= 1.992195721391930E+00 RR= 5.462461948205042E-03
2458544.500000000 = A.D. 2019-Mar-02 00:00:00.0000 TDB 
 X = 1.541580339300902E+00 Y =-1.270118595053034E+00 Z = 2.524169588311809E-02
 VX= 2.049687853818141E-02 VY= 1.646149645414125E-02 VZ=-4.264966531195733E-03
 LT= 1.153703457359320E-02 RG= 1.997575613394805E+00 RR= 5.297360041645206E-03
2458545.500000000 = A.D. 2019-Mar-03 00:00:00.0000 TDB 
 X = 1.561871219424710E+00 Y =-1.253510364513681E+00 Z = 2.097425446753869E-02
 VX= 2.008455141380636E-02 VY= 1.675345508171312E-02 VZ=-4.269752912731497E-03
 LT= 1.156715335127099E-02 RG= 2.002790518092424E+00 RR= 5.132488018579038E-03
2458546.500000000 = A.D. 2019-Mar-04 00:00:00.0000 TDB 
 X = 1.581748805118050E+00 Y =-1.236614689377334E+00 Z = 1.670251052381912E-02
 VX= 1.967031314368130E-02 VY= 1.703640017596730E-02 VZ=-4.273577833138289E-03
 LT= 1.159632058213514E-02 RG= 2.007840667566522E+00 RR= 4.967850428570515E-03
2458547.500000000 = A.D. 2019-Mar-05 00:00:00.0000 TDB 
 X = 1.601211255073719E+00 Y =-1.219440539937713E+00 Z = 1.242740708409915E-02
 VX= 1.925430285135045E-02 VY= 1.731041787667183E-02 VZ=-4.276477845809086E-03
 LT= 1.162453763543571E-02 RG= 2.012726298895399E+00 RR= 4.803452703099318E-03
2458548.500000000 = A.D. 2019-Mar-06 00:00:00.0000 TDB 
 X = 1.620256865482551E+00 Y =-1.201996801344821E+00 Z = 8.149851524131283E-03
 VX= 1.883665644387296E-02 VY= 1.757559235357965E-02 VZ=-4.278487726671941E-03
 LT= 1.165180591416906E-02 RG= 2.017447655000344E+00 RR= 4.639301085339074E-03
2458549.500000000 = A.D. 2019-Mar-07 00:00:00.0000 TDB 
 X = 1.638884066917498E+00 Y =-1.184292275509425E+00 Z = 3.870717292107863E-03
 VX= 1.841750680998639E-02 VY= 1.783200593676567E-02 VZ=-4.279640570477258E-03
 LT= 1.167812685957356E-02 RG= 2.022004985424043E+00 RR= 4.475402564263951E-03
2458550.500000000 = A.D. 2019-Mar-08 00:00:00.0000 TDB 
 X = 1.657091421407262E+00 Y =-1.166335682879392E+00 Z =-4.091544558996589E-04
 VX= 1.799698400132627E-02 VY= 1.807973924258633E-02 VZ=-4.279967881350155E-03
 LT= 1.170350195525649E-02 RG= 2.026398547045139E+00 RR= 4.311764812844271E-03
2458551.500000000 = A.D. 2019-Mar-09 00:00:00.0000 TDB 
 X = 1.674877619683294E+00 Y =-1.148135664092272E+00 Z =-4.688953308337632E-03
 VX= 1.757521539815745E-02 VY= 1.831887129519284E-02 VZ=-4.279499657966896E-03
 LT= 1.172793273097551E-02 RG= 2.030628604732955E+00 RR= 4.148396130146653E-03
2458552.500000000 = A.D. 2019-Mar-10 00:00:00.0000 TDB 
 X = 1.692241478585351E+00 Y =-1.129700781508624E+00 Z =-8.967898133194789E-03
 VX= 1.715232586098948E-02 VY= 1.854947964354173E-02 VZ=-4.278264473687934E-03
 LT= 1.175142076609657E-02 RG= 2.034695431946230E+00 RR= 3.985305387215501E-03
2458553.500000000 = A.D. 2019-Mar-11 00:00:00.0000 TDB 
 X = 1.709181938612147E+00 Y =-1.111039520630596E+00 Z =-1.324523569076786E-02
 VX= 1.672843786935369E-02 VY= 1.877164047385904E-02 VZ=-4.276289551955978E-03
 LT= 1.177396769275000E-02 RG= 2.038599311279572E+00 RR= 3.822501976651317E-03
2458554.500000000 = A.D. 2019-Mar-12 00:00:00.0000 TDB 
 X = 1.725698061604857E+00 Y =-1.092160291410337E+00 Z =-1.752023931957688E-02
 VX= 1.630367164890706E-02 VY= 1.898542871751661E-02 VZ=-4.273600837242595E-03
 LT= 1.179557519870593E-02 RG= 2.042340534961319E+00 RR= 3.659995765815942E-03
2458555.500000000 = A.D. 2019-Mar-13 00:00:00.0000 TDB 
 X = 1.741789028552333E+00 Y =-1.073071429452830E+00 Z =-2.179220769111271E-02
 VX= 1.587814528792781E-02 VY= 1.919091815429147E-02 VZ=-4.270223061810069E-03
 LT= 1.181624502998976E-02 RG= 2.045919405306395E+00 RR= 3.497797053600655E-03
2458556.500000000 = A.D. 2019-Mar-14 00:00:00.0000 TDB 
 X = 1.757454137507903E+00 Y =-1.053781197117800E+00 Z =-2.606046362935890E-02
 VX= 1.545197484413026E-02 VY= 1.938818151097592E-02 VZ=-4.266179808534876E-03
 LT= 1.183597899325793E-02 RG= 2.049336235127669E+00 RR= 3.335916530662466E-03
2458557.500000000 = A.D. 2019-Mar-15 00:00:00.0000 TDB 
 X = 1.772692801608484E+00 Y =-1.034297784525334E+00 Z =-3.032435299126397E-02
 VX= 1.502527444260390E-02 VY= 1.957729055531931E-02 VZ=-4.261493570029352E-03
 LT= 1.185477895795386E-02 RG= 2.052591348109235E+00 RR= 3.174365242993892E-03
2458558.500000000 = A.D. 2019-Mar-16 00:00:00.0000 TDB 
 X = 1.787504547187485E+00 Y =-1.014629310469901E+00 Z =-3.458324360458125E-02
 VX= 1.459815636553268E-02 VY= 1.975831618529005E-02 VZ=-4.256185804285651E-03
 LT= 1.187264685826260E-02 RG= 2.055685079144852E+00 RR= 3.013154558620000E-03
2458559.500000000 = A.D. 2019-Mar-17 00:00:00.0000 TDB 
 X = 1.801889011973522E+00 Y =-9.947838232474518E-01 Z =-3.883652425970387E-02
 VX= 1.417073113419861E-02 VY= 1.993132851367746E-02 VZ=-4.250276987062931E-03
 LT= 1.188958469488139E-02 RG= 2.058617774644508E+00 RR= 2.852296137119990E-03
2458560.500000000 = A.D. 2019-Mar-18 00:00:00.0000 TDB 
 X = 1.815845943367440E+00 Y =-9.747693014002139E-01 Z =-4.308360375234983E-02
 VX= 1.374310758360444E-02 VY= 2.009639694808940E-02 VZ=-4.243786661233168E-03
 LT= 1.190559453662147E-02 RG= 2.061389792811767E+00 RR= 2.691801901547832E-03
2458561.500000000 = A.D. 2019-Mar-19 00:00:00.0000 TDB 
 X = 1.829375196790345E+00 Y =-9.545936543837417E-01 Z =-4.732390997416073E-02
 VX= 1.331539292992538E-02 VY= 2.025359026649957E-02 VZ=-4.236733483302357E-03
 LT= 1.192067852185328E-02 RG= 2.064001503893993E+00 RR= 2.531684012208405E-03
2458562.500000000 = A.D. 2019-Mar-20 00:00:00.0000 TDB 
 X = 1.842476734095588E+00 Y =-9.342647231605310E-01 Z =-5.155688904849903E-02
 VX= 1.288769283100136E-02 VY= 2.040297668861599E-02 VZ=-4.229135267315035E-03
 LT= 1.193483885980422E-02 RG= 2.066453290407051E+00 RR= 2.371954841733912E-03
